[{"OBJECT_NAME":"SALSAT","OBJECT_ID":"2020-068K","EPOCH":"2026-03-09T22:26:21.804576","MEAN_MOTION":15.28191989,"ECCENTRICITY":0.00082652,"INCLINATION":97.8859,"RA_OF_ASC_NODE":66.0795,"ARG_OF_PERICENTER":295.8051,"MEAN_ANOMALY":64.2334,"EPHEMERIS_TYPE":0,"CLASSIFICATION_TYPE":"U","NORAD_CAT_ID":46495,"ELEMENT_SET_NO":999,"REV_AT_EPOCH":30019,"BSTAR":0.00040842582,"MEAN_MOTION_DOT":0.00011156,"MEAN_MOTION_DDOT":0},{"OBJECT_NAME":"STARLINK-35880","OBJECT_ID":"2025-303AA","EPOCH":"2026-03-09T01:45:38.939040","MEAN_MOTION":15.2758041,"ECCENTRICITY":0.00015817,"INCLINATION":43.0015,"RA_OF_ASC_NODE":313.9591,"ARG_OF_PERICENTER":259.0378,"MEAN_ANOMALY":101.0296,"EPHEMERIS_TYPE":0,"CLASSIFICATION_TYPE":"U","NORAD_CAT_ID":67187,"ELEMENT_SET_NO":999,"REV_AT_EPOCH":1264,"BSTAR":0.0012079101,"MEAN_MOTION_DOT":0.00033127,"MEAN_MOTION_DDOT":0}]
